<?xml version="1.0"?>
<gpx version="1.1" creator="GDAL 3.8.5" xmlns:xsi="http://www.w3.org/2001/XMLSchema-instance" xmlns:ogr="http://osgeo.org/gdal" xmlns="http://www.topografix.com/GPX/1/1" xsi:schemaLocation="http://www.topografix.com/GPX/1/1 http://www.topografix.com/GPX/1/1/gpx.xsd">
<metadata>
<bounds minlat="38.889322999999997" minlon="-78.172765999999996" maxlat="38.898124000000003" maxlon="-78.149679000000006"/>                                     
</metadata>
<wpt lat="38.891863" lon="-78.172441">
  <ele>4999999781011763123716096.000000</ele><time>2026-05-11T11:32:52Z</time><name>coyote_cb_2</name>
  <extensions><wptx1:WaypointExtension><wptx1:Samples>2</wptx1:Samples></wptx1:WaypointExtension>
    <ogr:elevation>248.567932</ogr:elevation>
    <ogr:datetime>2026/03/15 13:35:18+00</ogr:datetime>
  </extensions>
</wpt>
<wpt lat="38.891574" lon="-78.172761">
  <ele>4999999781011763123716096.000000</ele><time>2026-05-11T11:43:29Z</time><name>coyote_cb_1</name>
  <extensions><wptx1:WaypointExtension><wptx1:Samples>2</wptx1:Samples></wptx1:WaypointExtension>
    <ogr:elevation>245.687683</ogr:elevation>
    <ogr:datetime>2026/03/15 13:44:20+00</ogr:datetime>
  </extensions>
</wpt>
<wpt lat="38.892345" lon="-78.172431">
  <ele>4999999781011763123716096.000000</ele><time>2026-05-11T11:22:13Z</time><name>coyote_cb_3</name>
  <extensions><wptx1:WaypointExtension><wptx1:Samples>2</wptx1:Samples></wptx1:WaypointExtension>
    <ogr:elevation>256.117371</ogr:elevation>
    <ogr:datetime>2026/03/15 13:55:00+00</ogr:datetime>
  </extensions>
</wpt>
<wpt lat="38.892505" lon="-78.171901">
  <ele>4999999781011763123716096.000000</ele><time>2026-05-11T11:16:45Z</time><name>coyote_cb_4</name>
  <extensions><wptx1:WaypointExtension><wptx1:Samples>2</wptx1:Samples></wptx1:WaypointExtension>
    <ogr:elevation>261.032135</ogr:elevation>
    <ogr:datetime>2026/03/15 13:59:27+00</ogr:datetime>
  </extensions>
</wpt>
<wpt lat="38.892655" lon="-78.171300">
  <ele>4999999781011763123716096.000000</ele><time>2026-05-11T12:20:26Z</time><name>coyote_cb_5</name>
  <extensions><wptx1:WaypointExtension><wptx1:Samples>2</wptx1:Samples></wptx1:WaypointExtension>
    <ogr:elevation>265.675446</ogr:elevation>
    <ogr:datetime>2026/03/15 14:08:17+00</ogr:datetime>
  </extensions>
</wpt>
<wpt lat="38.892789" lon="-78.170734">
  <ele>4999999781011763123716096.000000</ele><time>2026-05-11T11:59:45Z</time><name>coyote_cb_6</name>
  <extensions><wptx1:WaypointExtension><wptx1:Samples>2</wptx1:Samples></wptx1:WaypointExtension>
    <ogr:elevation>271.774231</ogr:elevation>
    <ogr:datetime>2026/03/15 14:15:23+00</ogr:datetime>
  </extensions>
</wpt>
<wpt lat="38.892174" lon="-78.166352">
  <name>138</name>
  <extensions>
    <ogr:elevation>296.814453</ogr:elevation>
    <ogr:datetime>2026/03/15 14:45:37+00</ogr:datetime>
  </extensions>
</wpt>
<wpt lat="38.891342" lon="-78.166377">
  <name>139</name>
  <extensions>
    <ogr:elevation>301.393585</ogr:elevation>
    <ogr:datetime>2026/03/15 14:48:43+00</ogr:datetime>
  </extensions>
</wpt>
<wpt lat="38.890928" lon="-78.166096">
  <name>140</name>
  <extensions>
    <ogr:elevation>293.012512</ogr:elevation>
    <ogr:datetime>2026/03/15 14:51:28+00</ogr:datetime>
  </extensions>
</wpt>
<wpt lat="38.891752" lon="-78.166679">
  <name>141</name>
  <extensions>
    <ogr:elevation>300.519135</ogr:elevation>
    <ogr:datetime>2026/03/15 14:54:59+00</ogr:datetime>
  </extensions>
</wpt>
<wpt lat="38.891825" lon="-78.16728">
  <name>142</name>
  <extensions>
    <ogr:elevation>298.059601</ogr:elevation>
    <ogr:datetime>2026/03/15 14:57:41+00</ogr:datetime>
  </extensions>
</wpt>
<wpt lat="38.892312" lon="-78.167642">
  <name>143</name>
  <extensions>
    <ogr:elevation>285.15094</ogr:elevation>
    <ogr:datetime>2026/03/15 15:02:32+00</ogr:datetime>
  </extensions>
</wpt>
<wpt lat="38.889915" lon="-78.159508">
  <name>144</name>
  <extensions>
    <ogr:elevation>296.427185</ogr:elevation>
    <ogr:datetime>2026/03/15 15:15:02+00</ogr:datetime>
  </extensions>
</wpt>
<wpt lat="38.890827" lon="-78.15965">
  <name>145</name>
  <extensions>
    <ogr:elevation>307.699158</ogr:elevation>
    <ogr:datetime>2026/03/15 15:22:28+00</ogr:datetime>
  </extensions>
</wpt>
<wpt lat="38.891547" lon="-78.158636">
  <name>146</name>
  <extensions>
    <ogr:elevation>314.211792</ogr:elevation>
    <ogr:datetime>2026/03/15 15:30:00+00</ogr:datetime>
  </extensions>
</wpt>
<wpt lat="38.892661" lon="-78.156799">
  <name>147</name>
  <extensions>
    <ogr:elevation>343.970062</ogr:elevation>
    <ogr:datetime>2026/03/15 15:39:50+00</ogr:datetime>
  </extensions>
</wpt>
<wpt lat="38.893036" lon="-78.156448">
  <name>148</name>
  <extensions>
    <ogr:elevation>332.41803</ogr:elevation>
    <ogr:datetime>2026/03/15 15:44:00+00</ogr:datetime>
  </extensions>
</wpt>
<wpt lat="38.892749" lon="-78.155353">
  <name>149</name>
  <extensions>
    <ogr:elevation>320.158447</ogr:elevation>
    <ogr:datetime>2026/03/15 15:48:19+00</ogr:datetime>
  </extensions>
</wpt>
<wpt lat="38.893152" lon="-78.155736">
  <name>150</name>
  <extensions>
    <ogr:elevation>318.933594</ogr:elevation>
    <ogr:datetime>2026/03/15 15:52:16+00</ogr:datetime>
  </extensions>
</wpt>
<wpt lat="38.893468" lon="-78.156324">
  <name>151</name>
  <extensions>
    <ogr:elevation>321.725342</ogr:elevation>
    <ogr:datetime>2026/03/15 15:55:33+00</ogr:datetime>
  </extensions>
</wpt>
<wpt lat="38.893727" lon="-78.157033">
  <name>152</name>
  <extensions>
    <ogr:elevation>327.689728</ogr:elevation>
    <ogr:datetime>2026/03/15 15:59:09+00</ogr:datetime>
  </extensions>
</wpt>
<wpt lat="38.896295" lon="-78.159875">
  <ele>4999999781011763123716096.000000</ele><time>2026-05-11T14:32:20Z</time><name>grassland_a_cb_3</name>
  <extensions><wptx1:WaypointExtension><wptx1:Samples>2</wptx1:Samples></wptx1:WaypointExtension>
    <ogr:elevation>373.617981</ogr:elevation>
    <ogr:datetime>2026/03/15 16:09:15+00</ogr:datetime>
  </extensions>
</wpt>
<wpt lat="-38.895905" lon="-78.160437">
  <ele>4999999781011763123716096.000000</ele><time>2026-05-11T14:46:23Z</time><name>grassland_a_cb_2</name>
  <extensions><wptx1:WaypointExtension><wptx1:Samples>2</wptx1:Samples></wptx1:WaypointExtension>
    <ogr:elevation>367.651672</ogr:elevation>
    <ogr:datetime>2026/03/15 16:12:17+00</ogr:datetime>
  </extensions>
</wpt>
<wpt lat="38.896001" lon="-78.161326">
  <ele>4999999781011763123716096.000000</ele><time>2026-05-11T15:10:17Z</time><name>grassland_a_cb_1</name>
  <extensions><wptx1:WaypointExtension><wptx1:Samples>2</wptx1:Samples></wptx1:WaypointExtension>
    <ogr:elevation>364.634674</ogr:elevation>
    <ogr:datetime>2026/03/15 16:14:44+00</ogr:datetime>
  </extensions>
</wpt>
<wpt lat="38.896789" lon="-78.159631">
  <ele>4999999781011763123716096.000000</ele><time>2026-05-11T13:29:01Z</time><name>grassland_a_cb_4</name>
  <extensions><wptx1:WaypointExtension><wptx1:Samples>2</wptx1:Samples></wptx1:WaypointExtension>
    <ogr:elevation>365.347443</ogr:elevation>
    <ogr:datetime>2026/03/15 16:21:06+00</ogr:datetime>
  </extensions>
</wpt>
<wpt lat="38.897345" lon="-78.159482">
  <ele>4999999781011763123716096.000000</ele><time>2026-05-11T13:16:28Z</time><name>grassland_a_cb_5</name>
  <cmt></cmt><extensions><wptx1:WaypointExtension><wptx1:Samples>2</wptx1:Samples></wptx1:WaypointExtension>
    <ogr:elevation>360.123474</ogr:elevation>
    <ogr:datetime>2026/03/15 16:24:55+00</ogr:datetime>
  </extensions>
</wpt>
<wpt lat="38.897812" lon="-78.159387">
  <ele>4999999781011763123716096.000000</ele><time>2026-05-11T13:07:57Z</time><name>grassland_a_cb_6</name>
  <extensions><wptx1:WaypointExtension><wptx1:Samples>2</wptx1:Samples></wptx1:WaypointExtension>
    <ogr:elevation>348.307922</ogr:elevation>
    <ogr:datetime>2026/03/15 16:26:38+00</ogr:datetime>
  </extensions>
</wpt>
<wpt lat="38.89556" lon="-78.15725">
  <name>159</name>
  <extensions>
    <ogr:elevation>344.619934</ogr:elevation>
    <ogr:datetime>2026/03/15 16:55:05+00</ogr:datetime>
  </extensions>
</wpt>
<wpt lat="38.895289" lon="-78.156654">
  <name>160</name>
  <extensions>
    <ogr:elevation>345.101196</ogr:elevation>
    <ogr:datetime>2026/03/15 16:57:24+00</ogr:datetime>
  </extensions>
</wpt>
<wpt lat="38.89557" lon="-78.156159">
  <name>161</name>
  <extensions>
    <ogr:elevation>336.451263</ogr:elevation>
    <ogr:datetime>2026/03/15 17:02:34+00</ogr:datetime>
  </extensions>
</wpt>
<wpt lat="38.89554" lon="-78.155433">
  <name>162</name>
  <extensions>
    <ogr:elevation>320.99704</ogr:elevation>
    <ogr:datetime>2026/03/15 17:06:04+00</ogr:datetime>
  </extensions>
</wpt>
<wpt lat="38.895758" lon="-78.154908">
  <name>163</name>
  <extensions>
    <ogr:elevation>316.741119</ogr:elevation>
    <ogr:datetime>2026/03/15 17:11:03+00</ogr:datetime>
  </extensions>
</wpt>
<wpt lat="38.896281" lon="-78.154675">
  <name>164</name>
  <extensions>
    <ogr:elevation>324.96991</ogr:elevation>
    <ogr:datetime>2026/03/15 17:14:01+00</ogr:datetime>
  </extensions>
</wpt>
<wpt lat="38.893062" lon="-78.162163">
  <name>165</name>
  <extensions>
    <ogr:elevation>375.866974</ogr:elevation>
    <ogr:datetime>2026/03/15 17:58:19+00</ogr:datetime>
  </extensions>
</wpt>
<wpt lat="38.892768" lon="-78.16247">
  <name>166</name>
  <extensions>
    <ogr:elevation>370.326416</ogr:elevation>
    <ogr:datetime>2026/03/15 17:59:19+00</ogr:datetime>
  </extensions>
</wpt>
<wpt lat="38.892427" lon="-78.162792">
  <name>167</name>
  <extensions>
    <ogr:elevation>366.468872</ogr:elevation>
    <ogr:datetime>2026/03/15 18:00:25+00</ogr:datetime>
  </extensions>
</wpt>
<wpt lat="38.892018" lon="-78.163226">
  <name>168</name>
  <extensions>
    <ogr:elevation>354.911163</ogr:elevation>
    <ogr:datetime>2026/03/15 18:01:39+00</ogr:datetime>
  </extensions>
</wpt>
<wpt lat="38.893374" lon="-78.161783">
  <name>169</name>
  <extensions>
    <ogr:elevation>373.998474</ogr:elevation>
    <ogr:datetime>2026/03/15 18:05:41+00</ogr:datetime>
  </extensions>
</wpt>
<wpt lat="38.893903" lon="-78.162106">
  <name>170</name>
  <extensions>
    <ogr:elevation>378.764099</ogr:elevation>
    <ogr:datetime>2026/03/15 18:11:23+00</ogr:datetime>
  </extensions>
</wpt>
<wpt lat="38.892041" lon="-78.16067">
  <name>171</name>
  <extensions>
    <ogr:elevation>352.385437</ogr:elevation>
    <ogr:datetime>2026/03/15 18:20:35+00</ogr:datetime>
  </extensions>
</wpt>
<wpt lat="38.89121" lon="-78.160689">
  <name>172</name>
  <extensions>
    <ogr:elevation>343.364655</ogr:elevation>
    <ogr:datetime>2026/03/15 18:24:38+00</ogr:datetime>
  </extensions>
</wpt>
<wpt lat="38.891574" lon="-78.159767">
  <name>173</name>
  <extensions>
    <ogr:elevation>332.939209</ogr:elevation>
    <ogr:datetime>2026/03/15 18:29:34+00</ogr:datetime>
  </extensions>
</wpt>
<wpt lat="38.895474" lon="-78.163623">
  <name>174</name>
  <extensions>
    <ogr:elevation>367.463287</ogr:elevation>
    <ogr:datetime>2026/03/15 18:52:31+00</ogr:datetime>
  </extensions>
</wpt>
<wpt lat="38.895154" lon="-78.164167">
  <name>175</name>
  <extensions>
    <ogr:elevation>353.956696</ogr:elevation>
    <ogr:datetime>2026/03/15 18:56:13+00</ogr:datetime>
  </extensions>
</wpt>
<wpt lat="38.895349" lon="-78.164845">
  <name>176</name>
  <extensions>
    <ogr:elevation>346.368927</ogr:elevation>
    <ogr:datetime>2026/03/15 18:58:36+00</ogr:datetime>
  </extensions>
</wpt>
<wpt lat="38.895046" lon="-78.165552">
  <name>177</name>
  <extensions>
    <ogr:elevation>331.284729</ogr:elevation>
    <ogr:datetime>2026/03/15 19:02:06+00</ogr:datetime>
  </extensions>
</wpt>
<wpt lat="38.894553" lon="-78.166069">
  <name>178</name>
  <extensions>
    <ogr:elevation>323.816437</ogr:elevation>
    <ogr:datetime>2026/03/15 19:05:21+00</ogr:datetime>
  </extensions>
</wpt>
<wpt lat="38.894102" lon="-78.166393">
  <name>179</name>
  <extensions>
    <ogr:elevation>309.285553</ogr:elevation>
    <ogr:datetime>2026/03/15 19:09:11+00</ogr:datetime>
  </extensions>
</wpt>
<wpt lat="38.896993" lon="-78.165091">
  <name>180</name>
  <extensions>
    <ogr:elevation>345.545044</ogr:elevation>
    <ogr:datetime>2026/03/15 19:24:29+00</ogr:datetime>
  </extensions>
</wpt>
<wpt lat="38.896918" lon="-78.16584">
  <name>181</name>
  <extensions>
    <ogr:elevation>335.47702</ogr:elevation>
    <ogr:datetime>2026/03/15 19:28:19+00</ogr:datetime>
  </extensions>
</wpt>
<wpt lat="38.896546" lon="-78.166225">
  <name>182</name>
  <extensions>
    <ogr:elevation>331.956268</ogr:elevation>
    <ogr:datetime>2026/03/15 19:32:00+00</ogr:datetime>
  </extensions>
</wpt>
<wpt lat="38.896034" lon="-78.166695">
  <name>183</name>
  <extensions>
    <ogr:elevation>333.700317</ogr:elevation>
    <ogr:datetime>2026/03/15 19:34:23+00</ogr:datetime>
  </extensions>
</wpt>
<wpt lat="38.89572" lon="-78.167146">
  <name>184</name>
  <extensions>
    <ogr:elevation>330.220856</ogr:elevation>
    <ogr:datetime>2026/03/15 19:36:33+00</ogr:datetime>
  </extensions>
</wpt>
<wpt lat="38.895589" lon="-78.167822">
  <name>185</name>
  <extensions>
    <ogr:elevation>322.821381</ogr:elevation>
    <ogr:datetime>2026/03/15 19:39:28+00</ogr:datetime>
  </extensions>
</wpt>
<wpt lat="38.889323" lon="-78.163293">
  <name>186</name>
  <extensions>
    <ogr:elevation>301.614777</ogr:elevation>
    <ogr:datetime>2026/03/15 19:59:31+00</ogr:datetime>
  </extensions>
</wpt>
<wpt lat="38.898072" lon="-78.151479">
  <ele>4999999781011763123716096.000000</ele><time>2026-05-11T16:16:35Z</time><name>leech_cb_5</name>
  <extensions><wptx1:WaypointExtension><wptx1:Samples>2</wptx1:Samples></wptx1:WaypointExtension>
    <ogr:elevation>277.915375</ogr:elevation>
    <ogr:datetime>2026/03/17 16:42:12+00</ogr:datetime>
  </extensions>
</wpt>
<wpt lat="38.897738" lon="-78.150836">
  <ele>4999999781011763123716096.000000</ele><time>2026-05-11T16:34:37Z</time><name>leech_cb_6</name>
  <extensions><wptx1:WaypointExtension><wptx1:Samples>2</wptx1:Samples></wptx1:WaypointExtension>
    <ogr:elevation>276.052765</ogr:elevation>
    <ogr:datetime>2026/03/17 16:48:28+00</ogr:datetime>
  </extensions>
</wpt>
<wpt lat="38.897133" lon="-78.150712">
  <ele>4999999781011763123716096.000000</ele><time>2026-05-11T16:41:29Z</time><name>leech_cb_1</name>
  <extensions><wptx1:WaypointExtension><wptx1:Samples>2</wptx1:Samples></wptx1:WaypointExtension>
    <ogr:elevation>275.826416</ogr:elevation>
    <ogr:datetime>2026/03/17 16:55:41+00</ogr:datetime>
  </extensions>
</wpt>
<wpt lat="38.897571" lon="-78.150211">
  <ele>3333333283417967466381312.000000</ele><time>2026-05-11T17:04:53Z</time><name>leech_cb_2</name>
  <extensions><wptx1:WaypointExtension><wptx1:Samples>3</wptx1:Samples></wptx1:WaypointExtension>
    <ogr:elevation>277.283508</ogr:elevation>
    <ogr:datetime>2026/03/17 17:02:33+00</ogr:datetime>
  </extensions>
</wpt>
<wpt lat="38.897921" lon="-78.149627">
  <ele>4999999781011763123716096.000000</ele><time>2026-05-11T17:45:52Z</time><name>leech_cb_3</name>
  <extensions><wptx1:WaypointExtension><wptx1:Samples>2</wptx1:Samples></wptx1:WaypointExtension>
    <ogr:elevation>262.607361</ogr:elevation>
    <ogr:datetime>2026/03/17 17:09:00+00</ogr:datetime>
  </extensions>
</wpt>
<wpt lat="38.898083" lon="-78.150259">
  <ele>4999999781011763123716096.000000</ele><time>2026-05-11T17:37:11Z</time><name>leech_cb_4</name>
  <extensions><wptx1:WaypointExtension><wptx1:Samples>2</wptx1:Samples></wptx1:WaypointExtension>
    <ogr:elevation>272.410828</ogr:elevation>
    <ogr:datetime>2026/03/17 17:14:36+00</ogr:datetime>
  </extensions>
</wpt>
<wpt lat="38.889524" lon="-78.163893">
  <name>193</name>
  <extensions>
    <ogr:elevation>299.928253</ogr:elevation>
    <ogr:datetime>2026/03/17 18:29:42+00</ogr:datetime>
  </extensions>
</wpt>
<wpt lat="38.890223" lon="-78.164064">
  <name>194</name>
  <extensions>
    <ogr:elevation>305.651978</ogr:elevation>
    <ogr:datetime>2026/03/17 18:37:09+00</ogr:datetime>
  </extensions>
</wpt>
<wpt lat="38.89062" lon="-78.163577">
  <name>195</name>
  <extensions>
    <ogr:elevation>324.797089</ogr:elevation>
    <ogr:datetime>2026/03/17 18:43:43+00</ogr:datetime>
  </extensions>
</wpt>
<wpt lat="38.890168" lon="-78.163129">
  <name>196</name>
  <extensions>
    <ogr:elevation>320.460938</ogr:elevation>
    <ogr:datetime>2026/03/17 19:02:18+00</ogr:datetime>
  </extensions>
</wpt>
<wpt lat="38.890697" lon="-78.162805">
  <name>197</name>
  <extensions>
    <ogr:elevation>330.172699</ogr:elevation>
    <ogr:datetime>2026/03/17 19:09:26+00</ogr:datetime>
  </extensions>
</wpt>
</gpx>
