<?xml version="1.0" encoding="UTF-8" standalone="no" ?><gpx xmlns="http://www.topografix.com/GPX/1/1" xmlns:gpxx="http://www.garmin.com/xmlschemas/GpxExtensions/v3" xmlns:wptx1="http://www.garmin.com/xmlschemas/WaypointExtension/v1" xmlns:gpxtpx="http://www.garmin.com/xmlschemas/TrackPointExtension/v1" creator="Montana 700" version="1.1" xmlns:xsi="http://www.w3.org/2001/XMLSchema-instance" xsi:schemaLocation="http://www.topografix.com/GPX/1/1 http://www.topografix.com/GPX/1/1/gpx.xsd http://www.garmin.com/xmlschemas/GpxExtensions/v3 http://www8.garmin.com/xmlschemas/GpxExtensionsv3.xsd http://www.garmin.com/xmlschemas/TrackStatsExtension/v1 http://www8.garmin.com/xmlschemas/TrackStatsExtension.xsd http://www.garmin.com/xmlschemas/WaypointExtension/v1 http://www8.garmin.com/xmlschemas/WaypointExtensionv1.xsd http://www.garmin.com/xmlschemas/TrackPointExtension/v1 http://www.garmin.com/xmlschemas/TrackPointExtensionv1.xsd"><metadata><link href="http://www.garmin.com"><text>Garmin International</text></link><time>2026-05-11T14:10:11Z</time></metadata><wpt lat="38.896553" lon="-78.159878"><ele>382.595215</ele><time>2026-05-11T14:12:11Z</time><name>grassland_trailcam_0</name><sym>Flag, Green</sym><extensions><wptx1:WaypointExtension><wptx1:Samples>2</wptx1:Samples></wptx1:WaypointExtension></extensions></wpt><wpt lat="38.895903" lon="-78.160453"><ele>379.451965</ele><time>2026-05-11T14:49:26Z</time><name>grassland_a_cb_2</name><sym>Flag, Green</sym><extensions><wptx1:WaypointExtension><wptx1:Samples>2</wptx1:Samples></wptx1:WaypointExtension></extensions></wpt></gpx>