{
"type": "FeatureCollection",
"name": "coverboard_locations",
"crs": { "type": "name", "properties": { "name": "urn:ogc:def:crs:OGC:1.3:CRS84" } },
"features": [
{ "type": "Feature", "properties": { "point_id": null, "name": "coyote_cb_2", "datetime": "2026-05-11T11:32:52Z", "elevation": 4.9999997810117631e+24, "bearing": null, "accuracy": null, "photo_name": null, "photo": null, "note": null }, "geometry": { "type": "Point", "coordinates": [ -78.172441, 38.891863 ] } },
{ "type": "Feature", "properties": { "point_id": null, "name": "coyote_cb_1", "datetime": "2026-05-11T11:43:29Z", "elevation": 4.9999997810117631e+24, "bearing": null, "accuracy": null, "photo_name": null, "photo": null, "note": null }, "geometry": { "type": "Point", "coordinates": [ -78.172761, 38.891574 ] } },
{ "type": "Feature", "properties": { "point_id": null, "name": "coyote_cb_3", "datetime": "2026-05-11T11:22:13Z", "elevation": 4.9999997810117631e+24, "bearing": null, "accuracy": null, "photo_name": null, "photo": null, "note": null }, "geometry": { "type": "Point", "coordinates": [ -78.172431, 38.892345 ] } },
{ "type": "Feature", "properties": { "point_id": null, "name": "coyote_cb_4", "datetime": "2026-05-11T11:16:45Z", "elevation": 4.9999997810117631e+24, "bearing": null, "accuracy": null, "photo_name": null, "photo": null, "note": null }, "geometry": { "type": "Point", "coordinates": [ -78.171901, 38.892505 ] } },
{ "type": "Feature", "properties": { "point_id": null, "name": "coyote_cb_5", "datetime": "2026-05-11T12:20:26Z", "elevation": 4.9999997810117631e+24, "bearing": null, "accuracy": null, "photo_name": null, "photo": null, "note": null }, "geometry": { "type": "Point", "coordinates": [ -78.1713, 38.892655 ] } },
{ "type": "Feature", "properties": { "point_id": null, "name": "coyote_cb_6", "datetime": "2026-05-11T11:59:45Z", "elevation": 4.9999997810117631e+24, "bearing": null, "accuracy": null, "photo_name": null, "photo": null, "note": null }, "geometry": { "type": "Point", "coordinates": [ -78.170734, 38.892789 ] } },
{ "type": "Feature", "properties": { "point_id": null, "name": "forest_a_cb_1", "datetime": "2026-05-16T10:31:32Z", "elevation": 4.9999997810117631e+24, "bearing": null, "accuracy": null, "photo_name": null, "photo": null, "note": null }, "geometry": { "type": "Point", "coordinates": [ -78.159512, 38.889932 ] } },
{ "type": "Feature", "properties": { "point_id": null, "name": "forest_a_cb_2", "datetime": "2026-05-16T18:34:25Z", "elevation": 4.9999997810117631e+24, "bearing": null, "accuracy": null, "photo_name": null, "photo": null, "note": null }, "geometry": { "type": "Point", "coordinates": [ -78.159675, 38.890849 ] } },
{ "type": "Feature", "properties": { "point_id": null, "name": "forest_a_cb_4", "datetime": "2026-05-16T18:45:58Z", "elevation": 4.9999997810117631e+24, "bearing": null, "accuracy": null, "photo_name": null, "photo": null, "note": null }, "geometry": { "type": "Point", "coordinates": [ -78.158652, 38.891568 ] } },
{ "type": "Feature", "properties": { "point_id": null, "name": "forest_geo_cb_1", "datetime": "2026-05-14T18:23:21Z", "elevation": 4.9999997810117631e+24, "bearing": null, "accuracy": null, "photo_name": null, "photo": null, "note": null }, "geometry": { "type": "Point", "coordinates": [ -78.156815, 38.892667 ] } },
{ "type": "Feature", "properties": { "point_id": null, "name": "forest_geo_cb_2", "datetime": "2026-05-14T18:27:26Z", "elevation": 4.9999997810117631e+24, "bearing": null, "accuracy": null, "photo_name": null, "photo": null, "note": null }, "geometry": { "type": "Point", "coordinates": [ -78.156455, 38.89303 ] } },
{ "type": "Feature", "properties": { "point_id": null, "name": "forest_geo_cb_3", "datetime": "2026-05-14T18:43:08Z", "elevation": 4.9999997810117631e+24, "bearing": null, "accuracy": null, "photo_name": null, "photo": null, "note": null }, "geometry": { "type": "Point", "coordinates": [ -78.155369, 38.892757 ] } },
{ "type": "Feature", "properties": { "point_id": null, "name": "forest_geo_cb_4", "datetime": "2026-05-14T18:50:53Z", "elevation": 4.9999997810117631e+24, "bearing": null, "accuracy": null, "photo_name": null, "photo": null, "note": null }, "geometry": { "type": "Point", "coordinates": [ -78.15577, 38.893153 ] } },
{ "type": "Feature", "properties": { "point_id": null, "name": "forest_geo_cb_5", "datetime": "2026-05-14T18:57:45Z", "elevation": 4.9999997810117631e+24, "bearing": null, "accuracy": null, "photo_name": null, "photo": null, "note": null }, "geometry": { "type": "Point", "coordinates": [ -78.156349, 38.893485 ] } },
{ "type": "Feature", "properties": { "point_id": null, "name": "forest_geo_cb_6", "datetime": "2026-05-15T18:09:39Z", "elevation": 4.9999997810117631e+24, "bearing": null, "accuracy": null, "photo_name": null, "photo": null, "note": null }, "geometry": { "type": "Point", "coordinates": [ -78.157034, 38.893697 ] } },
{ "type": "Feature", "properties": { "point_id": null, "name": "grassland_a_cb_3", "datetime": "2026-05-11T14:32:20Z", "elevation": 4.9999997810117631e+24, "bearing": null, "accuracy": null, "photo_name": null, "photo": null, "note": null }, "geometry": { "type": "Point", "coordinates": [ -78.159875, 38.896295 ] } },
{ "type": "Feature", "properties": { "point_id": null, "name": "grassland_a_cb_1", "datetime": "2026-05-11T15:10:17Z", "elevation": 4.9999997810117631e+24, "bearing": null, "accuracy": null, "photo_name": null, "photo": null, "note": null }, "geometry": { "type": "Point", "coordinates": [ -78.161326, 38.896001 ] } },
{ "type": "Feature", "properties": { "point_id": null, "name": "grassland_a_cb_4", "datetime": "2026-05-11T13:29:01Z", "elevation": 4.9999997810117631e+24, "bearing": null, "accuracy": null, "photo_name": null, "photo": null, "note": null }, "geometry": { "type": "Point", "coordinates": [ -78.159631, 38.896789 ] } },
{ "type": "Feature", "properties": { "point_id": null, "name": "grassland_a_cb_5", "datetime": "2026-05-11T13:16:28Z", "elevation": 4.9999997810117631e+24, "bearing": null, "accuracy": null, "photo_name": null, "photo": null, "note": null }, "geometry": { "type": "Point", "coordinates": [ -78.159482, 38.897345 ] } },
{ "type": "Feature", "properties": { "point_id": null, "name": "grassland_a_cb_6", "datetime": "2026-05-11T13:07:57Z", "elevation": 4.9999997810117631e+24, "bearing": null, "accuracy": null, "photo_name": null, "photo": null, "note": null }, "geometry": { "type": "Point", "coordinates": [ -78.159387, 38.897812 ] } },
{ "type": "Feature", "properties": { "point_id": null, "name": "witch_hazel_cb_1", "datetime": "2026-05-13T18:38:46Z", "elevation": 4.9999997810117631e+24, "bearing": null, "accuracy": null, "photo_name": null, "photo": null, "note": null }, "geometry": { "type": "Point", "coordinates": [ -78.157236, 38.895575 ] } },
{ "type": "Feature", "properties": { "point_id": null, "name": "witch_hazel_cb_2", "datetime": "2026-05-13T18:43:10Z", "elevation": 4.9999997810117631e+24, "bearing": null, "accuracy": null, "photo_name": null, "photo": null, "note": null }, "geometry": { "type": "Point", "coordinates": [ -78.156649, 38.895266 ] } },
{ "type": "Feature", "properties": { "point_id": null, "name": "witch_hazel_cb_3", "datetime": "2026-05-13T19:08:26Z", "elevation": 4.9999997810117631e+24, "bearing": null, "accuracy": null, "photo_name": null, "photo": null, "note": null }, "geometry": { "type": "Point", "coordinates": [ -78.156133, 38.895565 ] } },
{ "type": "Feature", "properties": { "point_id": null, "name": "witch_hazel_cb_4", "datetime": "2026-05-13T19:32:51Z", "elevation": 4.9999997810117631e+24, "bearing": null, "accuracy": null, "photo_name": null, "photo": null, "note": null }, "geometry": { "type": "Point", "coordinates": [ -78.155437, 38.895526 ] } },
{ "type": "Feature", "properties": { "point_id": null, "name": "witch_hazel_cb_5", "datetime": "2026-05-13T19:48:53Z", "elevation": 4.9999997810117631e+24, "bearing": null, "accuracy": null, "photo_name": null, "photo": null, "note": null }, "geometry": { "type": "Point", "coordinates": [ -78.154866, 38.895732 ] } },
{ "type": "Feature", "properties": { "point_id": null, "name": "witch_hazel_cb_6", "datetime": "2026-05-13T20:09:39Z", "elevation": 4.9999997810117631e+24, "bearing": null, "accuracy": null, "photo_name": null, "photo": null, "note": null }, "geometry": { "type": "Point", "coordinates": [ -78.154687, 38.896251 ] } },
{ "type": "Feature", "properties": { "point_id": null, "name": "forest_a_cb_5", "datetime": "2026-05-16T17:50:53Z", "elevation": 4.9999997810117631e+24, "bearing": null, "accuracy": null, "photo_name": null, "photo": null, "note": null }, "geometry": { "type": "Point", "coordinates": [ -78.16067, 38.892038 ] } },
{ "type": "Feature", "properties": { "point_id": null, "name": "forest_a_cb_6", "datetime": "2026-05-16T18:20:05Z", "elevation": 4.9999997810117631e+24, "bearing": null, "accuracy": null, "photo_name": null, "photo": null, "note": null }, "geometry": { "type": "Point", "coordinates": [ -78.16071, 38.891211 ] } },
{ "type": "Feature", "properties": { "point_id": null, "name": "forest_a_cb_3", "datetime": "2026-05-16T10:21:42Z", "elevation": 4.9999997810117631e+24, "bearing": null, "accuracy": null, "photo_name": null, "photo": null, "note": null }, "geometry": { "type": "Point", "coordinates": [ -78.159773, 38.891577 ] } },
{ "type": "Feature", "properties": { "point_id": null, "name": "grassland_b_cb_6", "datetime": "2026-05-13T13:29:49Z", "elevation": 4.9999997810117631e+24, "bearing": null, "accuracy": null, "photo_name": null, "photo": null, "note": null }, "geometry": { "type": "Point", "coordinates": [ -78.16366, 38.895501 ] } },
{ "type": "Feature", "properties": { "point_id": null, "name": "grassland_b_cb_5", "datetime": "2026-05-13T13:43:20Z", "elevation": 4.9999997810117631e+24, "bearing": null, "accuracy": null, "photo_name": null, "photo": null, "note": null }, "geometry": { "type": "Point", "coordinates": [ -78.164182, 38.895141 ] } },
{ "type": "Feature", "properties": { "point_id": null, "name": "grassland_b_cb_4", "datetime": "2026-05-13T14:10:31Z", "elevation": 4.9999997810117631e+24, "bearing": null, "accuracy": null, "photo_name": null, "photo": null, "note": null }, "geometry": { "type": "Point", "coordinates": [ -78.164836, 38.895356 ] } },
{ "type": "Feature", "properties": { "point_id": null, "name": "grassland_b_cb_3", "datetime": "2026-05-13T14:23:02Z", "elevation": 4.9999997810117631e+24, "bearing": null, "accuracy": null, "photo_name": null, "photo": null, "note": null }, "geometry": { "type": "Point", "coordinates": [ -78.16555, 38.895064 ] } },
{ "type": "Feature", "properties": { "point_id": null, "name": "grassland_b_cb_2", "datetime": "2026-05-13T14:41:30Z", "elevation": 4.9999997810117631e+24, "bearing": null, "accuracy": null, "photo_name": null, "photo": null, "note": null }, "geometry": { "type": "Point", "coordinates": [ -78.166037, 38.894551 ] } },
{ "type": "Feature", "properties": { "point_id": null, "name": "grassland_b_cb_1", "datetime": "2026-05-13T14:54:04Z", "elevation": 4.9999997810117631e+24, "bearing": null, "accuracy": null, "photo_name": null, "photo": null, "note": null }, "geometry": { "type": "Point", "coordinates": [ -78.16638, 38.894096 ] } },
{ "type": "Feature", "properties": { "point_id": null, "name": "grassland_b_fence_cb_6", "datetime": "2026-05-13T12:59:52Z", "elevation": 4.9999997810117631e+24, "bearing": null, "accuracy": null, "photo_name": null, "photo": null, "note": null }, "geometry": { "type": "Point", "coordinates": [ -78.165108, 38.897006 ] } },
{ "type": "Feature", "properties": { "point_id": null, "name": "grassland_b_fence_cb_5", "datetime": "2026-05-13T12:55:08Z", "elevation": 4.9999997810117631e+24, "bearing": null, "accuracy": null, "photo_name": null, "photo": null, "note": null }, "geometry": { "type": "Point", "coordinates": [ -78.165842, 38.896934 ] } },
{ "type": "Feature", "properties": { "point_id": null, "name": "grassland_b_fence_cb_4", "datetime": "2026-05-13T12:48:40Z", "elevation": 4.9999997810117631e+24, "bearing": null, "accuracy": null, "photo_name": null, "photo": null, "note": null }, "geometry": { "type": "Point", "coordinates": [ -78.166231, 38.89656 ] } },
{ "type": "Feature", "properties": { "point_id": null, "name": "grassland_b_fence_cb_3", "datetime": "2026-05-13T12:05:27Z", "elevation": 4.9999997810117631e+24, "bearing": null, "accuracy": null, "photo_name": null, "photo": null, "note": null }, "geometry": { "type": "Point", "coordinates": [ -78.166688, 38.896055 ] } },
{ "type": "Feature", "properties": { "point_id": null, "name": "grassland_b_fence_cb_2", "datetime": "2026-05-13T12:14:13Z", "elevation": 4.9999997810117631e+24, "bearing": null, "accuracy": null, "photo_name": null, "photo": null, "note": null }, "geometry": { "type": "Point", "coordinates": [ -78.167156, 38.895734 ] } },
{ "type": "Feature", "properties": { "point_id": null, "name": "firehouse_cb_1", "datetime": "2026-05-13T15:52:18Z", "elevation": 4.9999997810117631e+24, "bearing": null, "accuracy": null, "photo_name": null, "photo": null, "note": null }, "geometry": { "type": "Point", "coordinates": [ -78.163298, 38.889318 ] } },
{ "type": "Feature", "properties": { "point_id": null, "name": "leech_cb_5", "datetime": "2026-05-11T16:16:35Z", "elevation": 4.9999997810117631e+24, "bearing": null, "accuracy": null, "photo_name": null, "photo": null, "note": null }, "geometry": { "type": "Point", "coordinates": [ -78.151479, 38.898072 ] } },
{ "type": "Feature", "properties": { "point_id": null, "name": "leech_cb_6", "datetime": "2026-05-11T16:34:37Z", "elevation": 4.9999997810117631e+24, "bearing": null, "accuracy": null, "photo_name": null, "photo": null, "note": null }, "geometry": { "type": "Point", "coordinates": [ -78.150836, 38.897738 ] } },
{ "type": "Feature", "properties": { "point_id": null, "name": "leech_cb_1", "datetime": "2026-05-11T16:41:29Z", "elevation": 4.9999997810117631e+24, "bearing": null, "accuracy": null, "photo_name": null, "photo": null, "note": null }, "geometry": { "type": "Point", "coordinates": [ -78.150712, 38.897133 ] } },
{ "type": "Feature", "properties": { "point_id": null, "name": "leech_cb_2", "datetime": "2026-05-11T17:04:53Z", "elevation": 3.3333332834179675e+24, "bearing": null, "accuracy": null, "photo_name": null, "photo": null, "note": null }, "geometry": { "type": "Point", "coordinates": [ -78.150211, 38.897571 ] } },
{ "type": "Feature", "properties": { "point_id": null, "name": "leech_cb_3", "datetime": "2026-05-11T17:45:52Z", "elevation": 4.9999997810117631e+24, "bearing": null, "accuracy": null, "photo_name": null, "photo": null, "note": null }, "geometry": { "type": "Point", "coordinates": [ -78.149627, 38.897921 ] } },
{ "type": "Feature", "properties": { "point_id": null, "name": "leech_cb_4", "datetime": "2026-05-11T17:37:11Z", "elevation": 4.9999997810117631e+24, "bearing": null, "accuracy": null, "photo_name": null, "photo": null, "note": null }, "geometry": { "type": "Point", "coordinates": [ -78.150259, 38.898083 ] } },
{ "type": "Feature", "properties": { "point_id": null, "name": "firehouse_cb_6", "datetime": "2026-05-13T16:05:02Z", "elevation": 4.9999997810117631e+24, "bearing": null, "accuracy": null, "photo_name": null, "photo": null, "note": null }, "geometry": { "type": "Point", "coordinates": [ -78.163901, 38.889531 ] } },
{ "type": "Feature", "properties": { "point_id": null, "name": "firehouse_cb_5", "datetime": "2026-05-13T16:17:16Z", "elevation": 4.9999997810117631e+24, "bearing": null, "accuracy": null, "photo_name": null, "photo": null, "note": null }, "geometry": { "type": "Point", "coordinates": [ -78.164104, 38.890206 ] } },
{ "type": "Feature", "properties": { "point_id": null, "name": "firehouse_cb_4", "datetime": "2026-05-13T16:28:31Z", "elevation": 4.9999997810117631e+24, "bearing": null, "accuracy": null, "photo_name": null, "photo": null, "note": null }, "geometry": { "type": "Point", "coordinates": [ -78.163641, 38.890622 ] } },
{ "type": "Feature", "properties": { "point_id": null, "name": "firehouse_cb_2", "datetime": "2026-05-13T17:44:28Z", "elevation": 4.9999997810117631e+24, "bearing": null, "accuracy": null, "photo_name": null, "photo": null, "note": null }, "geometry": { "type": "Point", "coordinates": [ -78.163133, 38.89018 ] } },
{ "type": "Feature", "properties": { "point_id": null, "name": "firehouse_cb_3", "datetime": "2026-05-13T17:27:42Z", "elevation": 4.9999997810117631e+24, "bearing": null, "accuracy": null, "photo_name": null, "photo": null, "note": null }, "geometry": { "type": "Point", "coordinates": [ -78.162817, 38.890685 ] } },
{ "type": "Feature", "properties": { "point_id": null, "name": "grassland_a_cb_2", "datetime": "2026-05-11T14:49:26Z", "elevation": 379.451965, "bearing": null, "accuracy": null, "photo_name": null, "photo": null, "note": null }, "geometry": { "type": "Point", "coordinates": [ -78.160453, 38.895903 ] } },
{ "type": "Feature", "properties": { "point_id": null, "name": "grassland_b_fence_cb_1", "datetime": "2026-05-19T14:18:27Z", "elevation": 344.467957, "bearing": null, "accuracy": null, "photo_name": null, "photo": null, "note": null }, "geometry": { "type": "Point", "coordinates": [ -78.167811, 38.89557 ] } }
]
}
