{
"type": "FeatureCollection",
"name": "other_locations",
"crs": { "type": "name", "properties": { "name": "urn:ogc:def:crs:OGC:1.3:CRS84" } },
"features": [
{ "type": "Feature", "properties": { "point_id": "1e737b5f-1426-49cc-828f-7eab6fdc8eb9", "name": "test", "datetime": "2026-06-29T12:09:30Z", "elevation": 67.1, "bearing": 3.0, "accuracy": 4.1, "photo_name": null, "photo": null, "note": "Test of upload" }, "geometry": { "type": "Point", "coordinates": [ -76.999665400223122, 38.995411681787246 ] } }
]
}
