{
"type": "FeatureCollection",
"name": "point_count_locations",
"crs": { "type": "name", "properties": { "name": "urn:ogc:def:crs:EPSG::32618" } },
"features": [
{ "type": "Feature", "properties": { "name": "coyote", "dist_to_open": 0.0 }, "geometry": { "type": "Point", "coordinates": [ 224896.983621784194838, 4309590.239162196405232 ] } },
{ "type": "Feature", "properties": { "name": "firehouse", "dist_to_open": 0.0 }, "geometry": { "type": "Point", "coordinates": [ 225571.409833187703043, 4309379.290675682015717 ] } },
{ "type": "Feature", "properties": { "name": "forest_a", "dist_to_open": 0.0 }, "geometry": { "type": "Point", "coordinates": [ 225959.031412998097949, 4309501.252528278157115 ] } },
{ "type": "Feature", "properties": { "name": "forest_geo", "dist_to_open": 0.0 }, "geometry": { "type": "Point", "coordinates": [ 226231.357602258794941, 4309719.611059206537902 ] } },
{ "type": "Feature", "properties": { "name": "grassland_a", "dist_to_open": 0.0 }, "geometry": { "type": "Point", "coordinates": [ 225984.447143548371969, 4310051.139292330481112 ] } },
{ "type": "Feature", "properties": { "name": "grassland_b", "dist_to_open": 0.0 }, "geometry": { "type": "Point", "coordinates": [ 225415.067910041281721, 4309855.911260347813368 ] } },
{ "type": "Feature", "properties": { "name": "grassland_b_fence", "dist_to_open": 0.0 }, "geometry": { "type": "Point", "coordinates": [ 225391.197816930274712, 4310024.201585245318711 ] } },
{ "type": "Feature", "properties": { "name": "leech", "dist_to_open": 0.0 }, "geometry": { "type": "Point", "coordinates": [ 226781.525338577717775, 4310123.098727553151548 ] } },
{ "type": "Feature", "properties": { "name": "witch_hazel", "dist_to_open": 0.0 }, "geometry": { "type": "Point", "coordinates": [ 226306.929990064090816, 4309898.943679954856634 ] } }
]
}
