{
"type": "FeatureCollection",
"name": "trailcam_locations",
"crs": { "type": "name", "properties": { "name": "urn:ogc:def:crs:EPSG::32618" } },
"features": [
{ "type": "Feature", "properties": { "name": "coyote", "dist_to_open": 10.629305839538574 }, "geometry": { "type": "Point", "coordinates": [ 224910.80340255680494, 4309598.371508141979575 ] } },
{ "type": "Feature", "properties": { "name": "firehouse", "dist_to_open": 0.99992096424102783 }, "geometry": { "type": "Point", "coordinates": [ 225583.354298092948738, 4309368.567021407186985 ] } },
{ "type": "Feature", "properties": { "name": "forest_a", "dist_to_open": 0.99992096424102783 }, "geometry": { "type": "Point", "coordinates": [ 225945.246649113629246, 4309493.064437079243362 ] } },
{ "type": "Feature", "properties": { "name": "forest_geo", "dist_to_open": 0.0 }, "geometry": { "type": "Point", "coordinates": [ 226235.258994222065667, 4309703.0913927834481 ] } },
{ "type": "Feature", "properties": { "name": "grassland_a", "dist_to_open": 5.8304910659790039 }, "geometry": { "type": "Point", "coordinates": [ 225970.003979512577644, 4310058.051191301085055 ] } },
{ "type": "Feature", "properties": { "name": "grassland_b", "dist_to_open": 3.6052663326263428 }, "geometry": { "type": "Point", "coordinates": [ 225426.775167391635478, 4309844.144938956946135 ] } },
{ "type": "Feature", "properties": { "name": "grassland_b_fence", "dist_to_open": 0.0 }, "geometry": { "type": "Point", "coordinates": [ 225361.737441403558478, 4310057.289083890616894 ] } },
{ "type": "Feature", "properties": { "name": "leech", "dist_to_open": 9.0546703338623047 }, "geometry": { "type": "Point", "coordinates": [ 226763.380276084586512, 4310153.865099744871259 ] } },
{ "type": "Feature", "properties": { "name": "witch_hazel", "dist_to_open": 10.999131202697754 }, "geometry": { "type": "Point", "coordinates": [ 226278.165199633978773, 4309910.232204323634505 ] } }
]
}
